X,Y,OBJECTID,NAME,ADDRESS,CITY,STATE,ZIP,TELEPHONE,ALT_PHONE,TYPE,COUNTY,COUNTYFIPS,ST_FIPS,COUNTRY,REGION,LATITUDE,LONGITUDE,STATE_ID,NAICS_CODE,OWNER,TTL_STAFF,BEDS,TRAUMA
291225.115232162,227635.647972658,1,Bridgeton RiteCare,1000 PEARL STREET,BRIDGETON,NJ,08302,856-451-4700,,FEDERALLY QUALIFIED HEALTH CENTERS,CUMBERLAND,34011,34,US,SOUTH,39.45620074,-75.21153984,,,,,9999999,
284708.320522994,218313.748965569,2,CompleteCare Adult & Women's Medical Professionals,70 COHANSEY ST,BRIDGETON,NJ,08302,,,FEDERALLY QUALIFIED HEALTH CENTERS,CUMBERLAND,34011,34,US,SOUTH,39.43046483,-75.23435015,,,,,9999999,
289278.789072327,217877.173067071,3,CompleteCare Bridgeton - Medical and Dental Health Professionals,105 MANHEIM AVENUE,BRIDGETON,NJ,08302,856-451-4700X2320,,FEDERALLY QUALIFIED HEALTH CENTERS,CUMBERLAND,34011,34,US,SOUTH,39.42936727,-75.21815753,,,,,9999999,
284463.359726828,217356.628832571,4,CompleteCare Health Network,53 SOUTH LAUREL ST,BRIDGETON,NJ,08302,856-451-4700,,FEDERALLY QUALIFIED HEALTH CENTERS,CUMBERLAND,34011,34,US,SOUTH,39.42783166,-75.23518974,,,,,9999999,
281764.521292496,217940.541050576,5,Kids' Corner - Bridgeton Middle School,251 W. BROAD STREET,BRIDGETON,NJ,08302,856-453-1233,,FEDERALLY QUALIFIED HEALTH CENTERS,CUMBERLAND,34011,34,US,SOUTH,39.42937396,-75.2447608,,,,,9999999,
281276.580339245,220351.548367657,6,Teen Center - Bridgeton High School,111 N. WEST AVENUE,BRIDGETON,NJ,08302,856-451-4440,,FEDERALLY QUALIFIED HEALTH CENTERS,CUMBERLAND,34011,34,US,SOUTH,39.43598208,-75.24655881,,,,,9999999,
288639.180771496,220348.761627823,7,Inspira-Bridgeton SED,333 IRVING AVENUE,BRIDGETON,NJ,08302,856-575-4500,,SATELLITE EMERGENCY DEPARTMENTS,CUMBERLAND,34011,34,US,SOUTH,39.43613882,-75.22049172,,,,,9999999,
468199.361348581,416701.865311906,8,Deborah Heart and Lung Center,200 TRENTON ROAD,BROWNS MILLS,NJ,08015,609-893-6611,,NON ACUTE CARE HOSPITALS,BURLINGTON,34005,34,US,SOUTH,39.977428,-74.585381,,,,,9999999,
468390.49318416,415778.487893574,9,Lourdes-Deborah SED,200 TRENTON ROAD,BROWNS MILLS,NJ,08015,,,SATELLITE EMERGENCY DEPARTMENTS,BURLINGTON,34005,34,US,SOUTH,39.97489348,-74.58469581,,,,,9999999,
392419.100507829,451917.84245199,10,Burlington City Center,665 HIGH STREET,BURLINGTON CITY,NJ,08016,609-386-0775,,FEDERALLY QUALIFIED HEALTH CENTERS,BURLINGTON,34005,34,US,SOUTH,40.07359197,-74.85630493,,,,,9999999,
319293.199515831,404236.543785907,11,Cooper Hospital/University Medical Center,ONE COOPER PLAZA,CAMDEN,NJ,08103,856-342-2000,856-342-2400,ACUTE CARE HOSPITALS,CAMDEN,34007,34,US,SOUTH,39.94159853,-75.11643371,,,,,491,Level I
325258.200381078,399202.875375569,12,Our Lady of Lourdes Medical Center,1600 HADDON AVENUE,CAMDEN,NJ,08103,856-757-3500,,ACUTE CARE HOSPITALS,CAMDEN,34007,34,US,SOUTH,39.927891,-75.09504,,,,,410,
319707.022178996,396820.143920571,13,Antioch Manor,1860 VAN BUREN STREET,CAMDEN,NJ,08104,856-964-8028,,FEDERALLY QUALIFIED HEALTH CENTERS,CAMDEN,34007,34,US,SOUTH,39.92124654,-75.11477565,,,,,9999999,
319493.920571078,405123.412418991,14,CAMCare Gateway Health Center,817 FEDERAL STREET,CAMDEN,NJ,08103,856-541-3270,,FEDERALLY QUALIFIED HEALTH CENTERS,CAMDEN,34007,34,US,SOUTH,39.944037,-75.11573967,,,,,9999999,
327092.622565247,405839.339792907,15,CAMcare - East,2610 FEDERAL STREET,CAMDEN,NJ,08105,856-635-0203,,FEDERALLY QUALIFIED HEALTH CENTERS,CAMDEN,34007,34,US,SOUTH,39.94614317,-75.08865495,,,,,9999999,
319302.220167078,408941.560622573,16,CAMcare - North,6TH ST AND ERIE STREETS,CAMDEN,NJ,08102,856-757-9180,,FEDERALLY QUALIFIED HEALTH CENTERS,CAMDEN,34007,34,US,SOUTH,39.95451508,-75.11651748,,,,,9999999,
320256.023049496,400507.461020991,17,CAMcare - South,S 8TH ST AND CARL MILLER BLVD.,CAMDEN,NJ,08103,856-541-4926,,FEDERALLY QUALIFIED HEALTH CENTERS,CAMDEN,34007,34,US,SOUTH,39.9313795,-75.1129085,,,,,9999999,
319749.621503245,396708.243553825,18,CAMcare Odessa Paulk-Jones,813 FERRY AVENUE,CAMDEN,NJ,08105,856-541-3270,,FEDERALLY QUALIFIED HEALTH CENTERS,CAMDEN,34007,34,US,SOUTH,39.92094015,-75.11462102,,,,,9999999,
317789.502063911,403147.092224658,19,Project H.O.P.E Inc at Bergen Lanning Health Center,439 CLINTON ST,CAMDEN,NJ,08103,856-968-2320,,FEDERALLY QUALIFIED HEALTH CENTERS,CAMDEN,34007,34,US,SOUTH,39.93857909,-75.12176952,,,,,9999999,
325125.009046413,398843.046698906,20,Project H.O.P.E. Inc,622 COOPER ST,CAMDEN,NJ,08102,856-541-6092,,FEDERALLY QUALIFIED HEALTH CENTERS,CAMDEN,34007,34,US,SOUTH,39.92690074,-75.09550637,,,,,9999999,
317629.826202162,403205.708577238,21,Project H.O.P.E. Mobile Unit,439 CLINTON STREET,CAMDEN,NJ,08103,856-968-2320,,FEDERALLY QUALIFIED HEALTH CENTERS,CAMDEN,34007,34,US,SOUTH,39.93873695,-75.12234043,,,,,9999999,
321569.459070913,399671.651668988,22,Virtua-Camden SED,1000 ATLANTIC AVENUE,CAMDEN,NJ,08104,,,SATELLITE EMERGENCY DEPARTMENTS,CAMDEN,34007,34,US,SOUTH,39.92910966,-75.10820456,,,,,9999999,
402200.546167996,92758.934458904,23,Cape Regional Medical Center,2 STONE HARBOR BOULEVARD,CAPE MAY COURT HOUSE,NJ,08210,609-463-2000,609-463-2688,ACUTE CARE HOSPITALS,CAPE MAY,34009,34,US,SOUTH,39.087614,-74.816829,,,,,242,
402246.493582662,93352.9122735709,24,Cape Community Health Center,410 N. ROUTE 9,CAPE MAY COURT HOUSE,NJ,08210,609-465-0258,,FEDERALLY QUALIFIED HEALTH CENTERS,CAPE MAY,34009,34,US,SOUTH,39.08924536,-74.81667441,,,,,9999999,
564794.67701583,734453.218324989,25,Essex County Hospital Center,204 GROVE AVENUE,CEDAR GROVE,NJ,07009,973-571-2801,,NON ACUTE CARE HOSPITALS,ESSEX,34013,34,US,NORTH EAST,40.84944285,-74.23730826,,,,,9999999,
347392.048501745,399126.053350739,26,Kennedy Memorial Hospitals UMC Cherry Hill,2201 CHAPEL AVENUE WEST,CHERRY HILL,NJ,08002,856-488-6500,856-488-6816,ACUTE CARE HOSPITALS,CAMDEN,34007,34,US,SOUTH,39.92805828,-75.0161135,,,,,229,
440758.711833663,723460.339392155,27,Kessler Institute for Rehabilitation - Welkind Facility,201 PLEASANT HILL ROAD,CHESTER,NJ,07930,973-252-6300,973-252-6367,NON ACUTE CARE HOSPITALS,MORRIS,34027,34,US,NORTH WEST,40.8194175,-74.68560172,,,,,9999999,
356248.495027661,356679.199924402,28,CAMcare Clementon,121 WHITEHORSE PIKE,CLEMENTON,NJ,08021,856-627-7701,,FEDERALLY QUALIFIED HEALTH CENTERS,CAMDEN,34007,34,US,SOUTH,39.81166378,-74.98371369,,,,,9999999,
501712.507248662,750936.287392907,29,Saint Clare's Hospital/Denville,25 POCONO ROAD,DENVILLE,NJ,07834-2995,973-625-6000,973-983-2233,ACUTE CARE HOSPITALS,MORRIS,34027,34,US,NORTH WEST,40.894982,-74.46532,,,,,9999999,
471000.112308744,747373.046487905,30,Saint Clare's Hospital/Dover,400 WEST BLACKWELL ST,DOVER,NJ,07801,973-989-3000,973-989-3200,ACUTE CARE HOSPITALS,MORRIS,34027,34,US,NORTH WEST,40.885181,-74.576407,,,,,60,
475705.256769828,746890.207230486,31,Highlands Health Van of Zufall Health Center,17 S WARREN ST,DOVER,NJ,07801,908-968-0898,,FEDERALLY QUALIFIED HEALTH CENTERS,MORRIS,34027,34,US,NORTH WEST,40.88386565,-74.55938806,,,,,9999999,
475733.770820413,746954.819305986,32,Zufall Health Center,18 W. BLACKWELL STREET,DOVER,NJ,07801,973-328-9100,,FEDERALLY QUALIFIED HEALTH CENTERS,MORRIS,34027,34,US,NORTH WEST,40.88404306,-74.55928509,,,,,9999999,
472028.654542994,747819.836932905,33,Kindred Hospital New Jersey - Morris County,400 USHY 46,DOVER,NJ,07801,,,NON ACUTE CARE HOSPITALS,MORRIS,34027,34,US,NORTH WEST,40.88640982,-74.57268827,,,,,9999999,
571446.467846081,699882.027296908,34,East Orange General Hospital,300 CENTRAL AVENUE,EAST ORANGE,NJ,07018-2897,973-674-8400,973-266-4401,ACUTE CARE HOSPITALS,ESSEX,34013,34,US,NORTH EAST,40.75448927,-74.21367109,,,,,211,
565254.878195163,699139.015659571,35,VA New Jersey Health Care System (East Orange),385 TREMONT AVENUE,EAST ORANGE,NJ,07018-1095,973-676-1000,,ACUTE CARE HOSPITALS,ESSEX,34013,34,US,NORTH EAST,40.752503,-74.236029,,,,,218,
571528.365648162,703959.794403821,36,East Orange Primary Care Center,444 WILLIAM STREET,EAST ORANGE,NJ,07017,973-675-1900X1003,973-675-1900X1064,FEDERALLY QUALIFIED HEALTH CENTERS,ESSEX,34013,34,US,NORTH EAST,40.7656819,-74.21332738,,,,,9999999,
571944.45011783,699543.741228074,37,Kessler Institute for Rehabilitation - East Facility,240 CENTRAL AVENUE,EAST ORANGE,NJ,07018,973-414-4700,,NON ACUTE CARE HOSPITALS,ESSEX,34013,34,US,NORTH EAST,40.75355621,-74.21187753,,,,,9999999,
533732.42713258,627748.97700949,38,JFK Medical Center,65 JAMES ST.,EDISON,NJ,08818,732-321-7000,732-321-7615,ACUTE CARE HOSPITALS,MIDDLESEX,34023,34,US,CENTRAL EAST,40.556738,-74.350252,,,,,399,
533732.42713258,627748.97700949,39,"Robert Wood Johnson, Jr. Rehabilitation Institute",65 JAMES STREET,EDISON,NJ,08818,732-321-7051,,NON ACUTE CARE HOSPITALS,MIDDLESEX,34023,34,US,CENTRAL EAST,40.556738,-74.350252,,,,,9999999,
465779.170978997,226490.907479987,40,AtlantiCare Health Services,2500 ENGLISH CREEK ROAD,EGG HARBOR TOWNSHIP,NJ,08234,609-344-5714,,FEDERALLY QUALIFIED HEALTH CENTERS,ATLANTIC,34001,34,US,SOUTH,39.45519694,-74.59331114,,,,,9999999,
571222.011930164,665080.825902075,41,Trinitas Regional Medical Center,225 WILLIAMSON STREET,ELIZABETH,NJ,07202,908-994-5000,,ACUTE CARE HOSPITALS,UNION,34039,34,US,CENTRAL EAST,40.658962,-74.214889,,,,,325,
628980.088342912,507505.963230908,42,Visiting Nurse Association of Central Jersey Community Health Center,1301 MAIN STREET,ASBURY PARK,NJ,07712,732-774-6333,732-776-3921,FEDERALLY QUALIFIED HEALTH CENTERS,MONMOUTH,34025,34,US,CENTRAL EAST,40.22570808,-74.00985222,,,,,9999999,
510883.863577828,191085.297517069,43,Atlanticare Regional Medical Center City Division,1925 PACIFIC AVENUE,ATLANTIC CITY,NJ,08401,609-345-4000,,ACUTE CARE HOSPITALS,ATLANTIC,34001,34,US,SOUTH,39.358004,-74.433655,,,,,9999999,Level II
512461.625514161,192580.958895825,44,AtlantiCare Health Services Healthcare for the Homeless-Atlantic Ave,1401 ATLANTIC AVE SUITE 2600,ATLANTIC CITY,NJ,08401,609-572-6055,,FEDERALLY QUALIFIED HEALTH CENTERS,ATLANTIC,34001,34,US,SOUTH,39.36210728,-74.42807055,,,,,9999999,
511750.557710581,192222.43172574,45,AtlantiCare Health Services Healthcare for the Homeless-Bacharach Blvd,2009 BACHARACH BLVD.,ATLANTIC CITY,NJ,08401,609-344-5714,,FEDERALLY QUALIFIED HEALTH CENTERS,ATLANTIC,34001,34,US,SOUTH,39.36112441,-74.43058658,,,,,9999999,
514068.747299913,193419.520210825,46,AtlantiCare Health Services at Covenant House,929 ATLANTIC AVENUE,ATLANTIC CITY,NJ,08401,609-344-5714,,FEDERALLY QUALIFIED HEALTH CENTERS,ATLANTIC,34001,34,US,SOUTH,39.36440604,-74.42238359,,,,,9999999,
512815.051644579,192764.764302492,47,Atlantic City Center,1301 ATLANTIC AVENUE,ATLANTIC CITY,NJ,08401,609-572-0000,,FEDERALLY QUALIFIED HEALTH CENTERS,ATLANTIC,34001,34,US,SOUTH,39.36261117,-74.42681995,,,,,9999999,
513328.144450411,193037.596105903,48,Women and Children's Health Pavilion,1125 ATLANTIC AVENUE,ATLANTIC CITY,NJ,08401,609-348-0066,,FEDERALLY QUALIFIED HEALTH CENTERS,ATLANTIC,34001,34,US,SOUTH,39.36335912,-74.42500432,,,,,9999999,
510885.831749745,191050.589909323,49,Acuity Specialty Hospital of New Jersey,1925 PACIFIC AVE,ATLANTIC CITY,NJ,08401,,,NON ACUTE CARE HOSPITALS,ATLANTIC,34001,34,US,SOUTH,39.3579087,-74.43364813,,,,,9999999,
599572.636987329,668509.083481237,50,Bayonne Medical Center,29 E 29TH ST,BAYONNE,NJ,07002-4695,201-858-5000,,ACUTE CARE HOSPITALS,HUDSON,34017,34,US,NORTH EAST,40.668075,-74.112644,,,,,278,
599166.46653983,668640.948046908,51,"Bayonne Family Medical Center by HAC, Inc",29 EAST 29TH STREET,BAYONNE,NJ,07002,201-683-2000,201-451-6300,FEDERALLY QUALIFIED HEALTH CENTERS,HUDSON,34017,34,US,NORTH EAST,40.66844187,-74.11410616,,,,,9999999,
441330.850453161,594594.007230319,52,Carrier Clinic,252 ROUTE 601,BELLE MEAD,NJ,08502,908-281-1000,,NON ACUTE CARE HOSPITALS,SOMERSET,34035,34,US,CENTRAL WEST,40.46567627,-74.68256805,,,,,9999999,
441032.193898246,595197.413175739,53,East Mountain Hospital,40 EAST MOUNTAIN ROAD,BELLE MEAD,NJ,08502,908-281-1500,,NON ACUTE CARE HOSPITALS,SOMERSET,34035,34,US,CENTRAL WEST,40.467331,-74.683646,,,,,9999999,
581841.487410329,711260.675799407,54,Clara Maass Medical Center,ONE CLARA MAASS DRIVE,BELLEVILLE,NJ,07109,973-450-2000,,ACUTE CARE HOSPITALS,ESSEX,34013,34,US,NORTH EAST,40.78562401,-74.17599655,,,,,445,
513866.226707578,667223.813742071,55,Runnells Specialized Hospital of Union County,40 WATCHUNG WAY,BERKELEY HEIGHTS,NJ,07922,908-771-5700,,NON ACUTE CARE HOSPITALS,UNION,34039,34,US,CENTRAL EAST,40.66517,-74.421626,,,,,9999999,
374000.978223413,345693.148733824,56,Virtua-Berlin SED,100 TOWNSEND AVENUE,BERLIN,NJ,08009,856-322-3000,,SATELLITE EMERGENCY DEPARTMENTS,CAMDEN,34007,34,US,SOUTH,39.781749,-74.920334,,,,,95,
330876.685863245,348721.681062572,57,Northbrook Behavioral Health Hospital,425 WOODBURY-TURNERSVILLE ROAD,BLACKWOOD,NJ,08012,856-374-6600,,NON ACUTE CARE HOSPITALS,CAMDEN,34007,34,US,SOUTH,39.78940612,-75.07385025,,,,,9999999,
512621.046783246,756395.286973573,58,Saint Clare's Hospital/Boonton,130 POWERVILLE ROAD,BOONTON TOWNSHIP,NJ,07005,973-316-1800,973-316-1808,NON ACUTE CARE HOSPITALS,MORRIS,34027,34,US,NORTH WEST,40.909948,-74.425843,,,,,9999999,
595268.247958329,453292.601185404,59,Ocean Medical Center,425 JACK MARTIN BOULEVARD,BRICK,NJ,08724,732-840-2200,,ACUTE CARE HOSPITALS,OCEAN,34029,34,US,CENTRAL EAST,40.07732766,-74.13139458,,,,,287,
595341.262904163,453259.366343737,60,Shore Rehabilitation Institute,425 JACK MARTIN BLVD,BRICK,NJ,08724,732-295-6500,732-836-4500,NON ACUTE CARE HOSPITALS,OCEAN,34029,34,US,CENTRAL EAST,40.07723559,-74.13113414,,,,,9999999,
579744.061487079,661842.307116657,61,Neighborhood Health Center - Elizabeth,"184 FIRST STREET, 2ND FLOOR",ELIZABETH,NJ,07206,908-355-4459,,FEDERALLY QUALIFIED HEALTH CENTERS,UNION,34039,34,US,CENTRAL EAST,40.64999228,-74.18421281,,,,,9999999,
571366.100224663,665136.025266737,62,Care One at Trinitas,225 WILLIAMSON ST,ELIZABETH,NJ,07202,,,NON ACUTE CARE HOSPITALS,UNION,34039,34,US,CENTRAL EAST,40.65911224,-74.21436898,,,,,9999999,
300279.024617746,275498.750737071,63,Inspira Medical Center Elmer,501 W FRONT STREET,ELMER,NJ,08318,856-363-1000,,ACUTE CARE HOSPITALS,SALEM,34033,34,US,SOUTH,39.587796,-75.180757,,,,,91,
639050.792282827,754834.656892739,64,Englewood Hospital and Medical Center,350 ENGLE STREET,ENGLEWOOD,NJ,07631,201-894-3000,201-894-3199,ACUTE CARE HOSPITALS,BERGEN,34003,34,US,NORTH EAST,40.904463,-73.968441,,,,,536,
635596.489152078,749073.923991658,65,NHCAC Health Center at Englewood,197 SOUTH VAN BRUNT ST,ENGLEWOOD,NJ,07631,201-537-4442,,FEDERALLY QUALIFIED HEALTH CENTERS,BERGEN,34003,34,US,NORTH EAST,40.88870769,-73.98106136,,,,,9999999,
391841.094117913,618699.16177582,66,Hunterdon Medical Center,2100 WESCOTT DRIVE,FLEMINGTON,NJ,08822,908-788-6100,,ACUTE CARE HOSPITALS,HUNTERDON,34019,34,US,CENTRAL WEST,40.531429,-74.860798,,,,,178,
545367.455371663,511507.132065825,67,CentraState Medical Center,901 WEST MAIN STREET,FREEHOLD,NJ,07728,732-431-2000,,ACUTE CARE HOSPITALS,MONMOUTH,34025,34,US,CENTRAL EAST,40.237573,-74.309279,,,,,263,
602462.690918494,746175.870076485,68,NHCAC Garfield,535 MIDLAND AVENUE,GARFIELD,NJ,07026,973-340-1182,,FEDERALLY QUALIFIED HEALTH CENTERS,BERGEN,34003,34,US,NORTH EAST,40.88122983,-74.1009518,,,,,9999999,
320660.626899078,319370.760433823,69,Glassboro Community Health Center,335 DELSEA DRIVE N,GLASSBORO,NJ,08028,856-863-5720,,FEDERALLY QUALIFIED HEALTH CENTERS,GLOUCESTER,34015,34,US,SOUTH,39.70864259,-75.10949468,,,,,9999999,
375914.177480996,677588.54858999,70,Senator Garrett W. Hagedorn Psychiatric Hospital,200 SANATORIUM ROAD,GLEN GARDNER,NJ,08826,,,NON ACUTE CARE HOSPITALS,HUNTERDON,34019,34,US,CENTRAL WEST,40.69288755,-74.91910651,,,,,9999999,
614798.066510163,747136.623732403,71,Hackensack University Medical Center,30 PROSPECT AVENUE,HACKENSACK,NJ,07601,551-996-2000,,ACUTE CARE HOSPITALS,BERGEN,34003,34,US,NORTH EAST,40.883704,-74.056323,,,,,775,Level II
618886.11935766,747866.839791656,72,NHCAC Hackensack,25 EAST SALEM STREET,HACKENSACK,NJ,07601,201-996-2121,,FEDERALLY QUALIFIED HEALTH CENTERS,BERGEN,34003,34,US,NORTH EAST,40.88565052,-74.04152412,,,,,9999999,
404745.958399996,738985.538000487,73,Hackettstown Regional Medical Center,651 WILLOW GROVE STREET,HACKETTSTOWN,NJ,07840-1792,908-852-5100,908-850-6800,ACUTE CARE HOSPITALS,WARREN,34041,34,US,NORTH WEST,40.86175035,-74.81592619,,,,,111,
405457.764062997,739085.420674741,74,Zufall Health Center at Hackettstown,653 WILLOW GROVE STREET,HACKETTSTOWN,NJ,07840,908-452-5366,,FEDERALLY QUALIFIED HEALTH CENTERS,WARREN,34041,34,US,NORTH WEST,40.86203154,-74.81335394,,,,,9999999,
444090.218293995,503759.806353152,75,Robert Wood Johnson University Hospital at Hamilton,1 HAMILTON HEALTH PLACE,HAMILTON,NJ,08690,609-586-7900,609-584-0550,ACUTE CARE HOSPITALS,MERCER,34021,34,US,CENTRAL WEST,40.21633388,-74.67201575,,,,,280,
414830.905421663,286865.851034321,76,Hammonton Center,860 S. WHITE HORSE PIKE,HAMMONTON,NJ,08037,609-567-0200,,FEDERALLY QUALIFIED HEALTH CENTERS,ATLANTIC,34001,34,US,SOUTH,39.62067509,-74.77440638,,,,,9999999,
407130.307961997,292982.052056491,77,Hammonton Dental Center,310 BELLEVUE AVENUE,HAMMONTON,NJ,08037,609-561-9150,,FEDERALLY QUALIFIED HEALTH CENTERS,ATLANTIC,34001,34,US,SOUTH,39.63739938,-74.80181719,,,,,9999999,
414830.905421663,286865.851034321,78,Southern Jersey Family Medical Centers,1 WHITE HORSE CENTRE,HAMMONTON,NJ,08037,609-567-0434,,FEDERALLY QUALIFIED HEALTH CENTERS,ATLANTIC,34001,34,US,SOUTH,39.62067509,-74.77440638,,,,,9999999,
414830.905421663,286865.851034321,79,The Mobile Medic,1 WHITE HORSE CENTRE,HAMMONTON,NJ,08037,800-486-0131,,FEDERALLY QUALIFIED HEALTH CENTERS,ATLANTIC,34001,34,US,SOUTH,39.62067509,-74.77440638,,,,,9999999,
415334.790896829,291102.867822737,80,ARMC SED - Kessler,219 N. WHITE HORSE PIKE,HAMMONTON,NJ,08037-2014,609-561-1096,,SATELLITE EMERGENCY DEPARTMENTS,ATLANTIC,34001,34,US,SOUTH,39.6323121,-74.77266319,,,,,9999999,
390612.273412827,309387.49463924,81,Ancora Psychiatric Hospital,301 SPRING GARDEN ROAD,HAMMONTOWN,NJ,08037,609-561-1700,,NON ACUTE CARE HOSPITALS,ATLANTIC,34001,34,US,SOUTH,39.68227294,-74.8607057,,,,,9999999,
621254.331484746,695228.636341237,82,Hoboken University Medical Center,308 WILLOW AVENUE,HOBOKEN,NJ,07030,201-418-1000,201-418-1900,ACUTE CARE HOSPITALS,HUDSON,34017,34,US,NORTH EAST,40.74113,-74.033971,,,,,364,
620618.111628577,694350.95633807,83,NHCAC CHC at Hoboken,124 GRAND STREET,HOBOKEN,NJ,07030,201-795-9521,,FEDERALLY QUALIFIED HEALTH CENTERS,HUDSON,34017,34,US,NORTH EAST,40.73873008,-74.03628379,,,,,9999999,
577973.687403161,572751.042386152,84,Bayshore Community Hospital,727 NORTH BEERS STREET,HOLMDEL,NJ,07733-1598,732-739-5900,,ACUTE CARE HOSPITALS,MONMOUTH,34025,34,US,CENTRAL EAST,40.405447,-74.191716,,,,,225,
406911.987532496,531505.15965499,85,Capital Health System - Hopewell,1 CAPITAL WAY,HOPEWELL,NJ,08560,609-394-4000,,ACUTE CARE HOSPITALS,MERCER,34021,34,US,CENTRAL WEST,40.29222629,-74.80549317,,,,,350,
565261.94084508,689235.193931825,86,Irvington Community Health Center,1150 SPRINGFIELD AVENUE,IRVINGTON,NJ,07111,973-399-6292,,FEDERALLY QUALIFIED HEALTH CENTERS,ESSEX,34013,34,US,NORTH EAST,40.72531706,-74.23611096,,,,,9999999,
616871.756588496,692705.261466742,87,Christ Hospital,176 PALISADE AVENUE,JERSEY CITY,NJ,07306,201-795-8200,,ACUTE CARE HOSPITALS,HUDSON,34017,34,US,NORTH EAST,40.73426628,-74.04983403,,,,,402,
616596.00156258,686099.231699824,88,Jersey City Medical Center,355 GRAND STREET,JERSEY CITY,NJ,07302,201-915-2000,,ACUTE CARE HOSPITALS,HUDSON,34017,34,US,NORTH EAST,40.716137,-74.050951,,,,,356,Level II
618528.874337245,687389.36363399,89,Alliance Community Healthcare - Christopher Columbus Drive,115 CHRISTOPHER COLUMBUS DR,JERSEY CITY,NJ,07302,201-451-6300,201-710-2201,FEDERALLY QUALIFIED HEALTH CENTERS,HUDSON,34017,34,US,NORTH EAST,40.719651,-74.04395387,,,,,9999999,
611347.068818994,689042.197270572,90,Alliance Community Healthcare - Bergen,714 BERGEN AVE,JERSEY CITY,NJ,07306,201-451-6300,201-710-2000,FEDERALLY QUALIFIED HEALTH CENTERS,HUDSON,34017,34,US,NORTH EAST,40.7242874,-74.06983491,,,,,9999999,
611180.121318247,684000.856959574,91,Metropolitan Family Health Network,935 GARFIELD AVENUE,JERSEY CITY,NJ,07304,201-478-5800,,FEDERALLY QUALIFIED HEALTH CENTERS,HUDSON,34017,34,US,NORTH EAST,40.71045141,-74.0705262,,,,,9999999,
612199.618294995,690672.285873905,92,Metropolitan Family Health Network at Bergen Ave,857 BERGEN AVE,JERSEY CITY,NJ,07306,201-478-5800,,FEDERALLY QUALIFIED HEALTH CENTERS,HUDSON,34017,34,US,NORTH EAST,40.7287504,-74.06672988,,,,,9999999,
617633.486036163,694696.786683157,93,NHCAC Jersey City,324 PALISADE AVENUE,JERSEY CITY,NJ,07307,201-459-8888,,FEDERALLY QUALIFIED HEALTH CENTERS,HUDSON,34017,34,US,NORTH EAST,40.73972213,-74.04704822,,,,,9999999,
607403.785038911,683877.641982906,94,Snyder High School,239 BERGEN AVENUE,JERSEY CITY,NJ,07503,201-915-6220,,FEDERALLY QUALIFIED HEALTH CENTERS,HUDSON,34017,34,US,NORTH EAST,40.7101548122204,-74.0841491110049,,,,,9999999,
595225.654539578,588346.313360907,95,Keansburg Community Health Center,100 MAIN STREET,KEANSBURG,NJ,07734,732-787-1250,732-774-6333,FEDERALLY QUALIFIED HEALTH CENTERS,MONMOUTH,34025,34,US,CENTRAL EAST,40.44807596,-74.1295299,,,,,9999999,
575009.556520414,584689.717655741,96,Keyport Primary Care Center,35 BROAD STREET,KEYPORT,NJ,07735,732-888-4149,732-774-6333,FEDERALLY QUALIFIED HEALTH CENTERS,MONMOUTH,34025,34,US,CENTRAL EAST,40.43824813,-74.20221568,,,,,9999999,
541080.671294328,429486.734099075,97,Ocean Health Initiatives - Manchester,686 STHY 70,LAKEHURST,NJ,08733,,,FEDERALLY QUALIFIED HEALTH CENTERS,OCEAN,34029,34,US,CENTRAL EAST,40.01242687,-74.32521246,,,,,9999999,
570894.424658827,451709.144378573,98,Monmouth Medical Center - Southern Campus,600 RIVER AVENUE,LAKEWOOD,NJ,08701-4281,732-363-1900,732-886-4740,ACUTE CARE HOSPITALS,OCEAN,34029,34,US,CENTRAL EAST,40.073225,-74.218517,,,,,353,
570647.844115246,464419.995597236,99,"CHEMED (Center for Health, Education, Medicine and Dentistry)",1771 MADISON AVENUE,LAKEWOOD,NJ,08701,732-364-2144,,FEDERALLY QUALIFIED HEALTH CENTERS,OCEAN,34029,34,US,CENTRAL EAST,40.10812216,-74.21925482,,,,,9999999,
573784.555689581,458981.261067905,100,Ocean Health Initiatives - Lakewood,101 SECOND STREET,LAKEWOOD,NJ,08701,732-363-6655,,FEDERALLY QUALIFIED HEALTH CENTERS,OCEAN,34029,34,US,CENTRAL EAST,40.09316355,-74.20810392,,,,,9999999,
573784.555689581,458981.261067905,101,Ocean Health Initiatives Mobile Unit,101 SECOND STREET,LAKEWOOD,NJ,08701,732-363-6655,,FEDERALLY QUALIFIED HEALTH CENTERS,OCEAN,34029,34,US,CENTRAL EAST,40.09316355,-74.20810392,,,,,9999999,
571773.145014245,459836.075959325,102,Ocean Health Initiatives at Clifton Avenue Grade School - SBHC,625 CLIFTON AVENUE,LAKEWOOD,NJ,08701,732-719-1505,,FEDERALLY QUALIFIED HEALTH CENTERS,OCEAN,34029,34,US,CENTRAL EAST,40.09552816,-74.21528398,,,,,9999999,
571158.52157158,459936.874314152,103,Specialty Hospital of Central Jersey,600 USHY 9,LAKEWOOD,NJ,08701,,,NON ACUTE CARE HOSPITALS,OCEAN,34029,34,US,CENTRAL EAST,40.09581026,-74.2174799,,,,,9999999,
426731.41475708,530059.980458736,104,St. Lawrence Rehabilitation Center,2381 LAWRENCEVILLE ROAD,LAWRENCEVILLE,NJ,08648,609-896-9500,,NON ACUTE CARE HOSPITALS,MERCER,34021,34,US,CENTRAL WEST,40.28842476,-74.73442678,,,,,9999999,
546189.354318414,703112.727200322,105,Saint Barnabas Medical Center,94 OLD SHORT HILLS ROAD,LIVINGSTON,NJ,07039,973-322-5000,973-322-8258,ACUTE CARE HOSPITALS,ESSEX,34013,34,US,NORTH EAST,40.76354769,-74.30481635,,,,,622,
636142.836156495,532876.462030485,106,Monmouth Medical Center,300 SECOND AVENUE,LONG BRANCH,NJ,07740,732-222-5200,,ACUTE CARE HOSPITALS,MONMOUTH,34025,34,US,CENTRAL EAST,40.29524204,-73.98367047,,,,,527,
634674.34335858,536149.398069903,107,Monmouth Family Health Center - Broadway,270 BROADWAY,LONG BRANCH,NJ,07740,732-923-7100,917-453-4827,FEDERALLY QUALIFIED HEALTH CENTERS,MONMOUTH,34025,34,US,CENTRAL EAST,40.30425001,-73.98886739,,,,,9999999,
636150.531022996,532941.728304155,108,Monmouth Family Health Center - Dental Clinic,300 SECOND AVE,LONG BRANCH,NJ,07740,732-923-6585,,FEDERALLY QUALIFIED HEALTH CENTERS,MONMOUTH,34025,34,US,CENTRAL EAST,40.29542108,-73.98364152,,,,,9999999,
636438.20203558,533510.165815569,109,Women's Wellness Center of Monmouth Family Health Center,80 PAVILLION AVENUE,LONG BRANCH,NJ,07740,732-963-0114,,FEDERALLY QUALIFIED HEALTH CENTERS,MONMOUTH,34025,34,US,CENTRAL EAST,40.2969769,-73.9825983,,,,,9999999,
636140.351581413,532872.51354757,110,AcuteCare Specialty Hospital of Monmouth,300 2ND AVE,LONG BRANCH,NJ,07740,,,NON ACUTE CARE HOSPITALS,MONMOUTH,34025,34,US,CENTRAL EAST,40.29523124,-73.98367946,,,,,9999999,
552694.153316662,323385.936130486,111,Southern Ocean Medical Center,1140 ROUTE 72 WEST,MANAHAWKIN,NJ,08050,609-597-6011,609-978-8900,ACUTE CARE HOSPITALS,OCEAN,34029,34,US,CENTRAL EAST,39.72106632,-74.28466107,,,,,176,
551338.360096496,320469.29727874,112,Ocean Health Initiatives- Stafford,333 HAYWOOD RD,MANAHAWKIN,NJ,08050,609-489-0110,,FEDERALLY QUALIFIED HEALTH CENTERS,OCEAN,34029,34,US,CENTRAL EAST,39.71306757,-74.28950561,,,,,9999999,
374683.003762245,382023.768329658,113,Virtua West Jersey Hospital - Marlton,90 BRICK ROAD,MARLTON,NJ,08053,856-355-6200,,ACUTE CARE HOSPITALS,BURLINGTON,34005,34,US,SOUTH,39.881499,-74.918512,,,,,188,
374771.766379997,382359.622644819,114,Marlton Rehabilitation Hospital,92 BRICK ROAD,MARLTON,NJ,08053,856-988-8778,800-988-9828,NON ACUTE CARE HOSPITALS,BURLINGTON,34005,34,US,SOUTH,39.88242218,-74.9182013,,,,,9999999,
374794.050784245,382452.621146485,115,Weisman Children's Rehabilitation Hospital,92 BRICK ROAD,MARLTON,NJ,08053,609-489-4520,877-543-8774,NON ACUTE CARE HOSPITALS,BURLINGTON,34005,34,US,SOUTH,39.88267778,-74.91812344,,,,,9999999,
339641.259541411,210385.417053238,116,Millville Community Health Center,1200 N. HIGH STREET,MILLVILLE,NJ,08332,856-451-4700,,FEDERALLY QUALIFIED HEALTH CENTERS,CUMBERLAND,34011,34,US,SOUTH,39.40976263,-75.03970441,,,,,9999999,
574173.178599995,720743.009196907,117,Hackensack UMC Mountainside,1 BAY AVENUE,MONTCLAIR,NJ,07042,973-429-6000,973-429-6600,ACUTE CARE HOSPITALS,ESSEX,34013,34,US,NORTH EAST,40.811727,-74.203574,,,,,347,
501681.362297829,712507.515169241,118,Morristown Medical Center,100 MADISON AVENUE,MORRISTOWN,NJ,07962-1956,973-971-5000,973-971-5555,ACUTE CARE HOSPITALS,MORRIS,34027,34,US,NORTH WEST,40.78949627,-74.46548742,,,,,693,Level II
496241.984725162,715875.163617656,119,Zufall Health Center at Morristown,2-4 ATNO AVENUE,MORRISTOWN,NJ,07960,973-267-0002,,FEDERALLY QUALIFIED HEALTH CENTERS,MORRIS,34027,34,US,NORTH WEST,40.79874464,-74.48513046,,,,,9999999,
497230.306895494,716316.992458403,120,Atlantic Rehabilitation Institute,95 USHY 202,MORRISTOWN,NJ,07960,,,NON ACUTE CARE HOSPITALS,MORRIS,34027,34,US,NORTH WEST,40.79995694,-74.48156016,,,,,9999999,
489670.269522164,729411.736938156,121,Greystone Park Psychiatric Hospital,59 KOCH AVENUE,MORRISTOWN,NJ,07950-4400,973-538-1800,,NON ACUTE CARE HOSPITALS,MERCER,34021,34,US,CENTRAL WEST,40.83590289,-74.50887341,,,,,9999999,
495040.175448995,712577.478611991,122,Morristown Memorial Hospital - Mt. Kemble Division,95 MOUNT KIMBLE AVENUE,MORRISTOWN,NJ,07962,973-971-5450,,NON ACUTE CARE HOSPITALS,MORRIS,34027,34,US,NORTH WEST,40.789693,-74.489473,,,,,9999999,
453502.711279996,413189.228636406,123,Buttonwood Hospital of Burlington County,600 PEMBERTON-BROWNS MILLS ROAD,MOUNT HOLLY,NJ,08060,609-726-7000,,NON ACUTE CARE HOSPITALS,BURLINGTON,34005,34,US,SOUTH,39.967734,-74.637807,,,,,9999999,
532641.367306828,668908.586619236,124,Children's Specialized Hospital at Mountainside,150 NEW PROVIDENCE ROAD,MOUNTAINSIDE,NJ,07092,908-301-5534,,NON ACUTE CARE HOSPITALS,UNION,34039,34,US,CENTRAL EAST,40.669729,-74.353933,,,,,9999999,
409400.308671329,419944.98054482,125,Virtua Memorial Hospital of Burlington County,175 MADISON AVENUE,MT. HOLLY,NJ,08060,609-267-0700,,ACUTE CARE HOSPITALS,BURLINGTON,34005,34,US,SOUTH,39.985987,-74.795244,,,,,369,
620397.228868246,501204.34755332,126,Jersey Shore University Medical Center,1945 ROUTE 33,NEPTUNE,NJ,07753,732-775-5500,,ACUTE CARE HOSPITALS,MONMOUTH,34025,34,US,CENTRAL EAST,40.20853511,-74.04070776,,,,,558,Level II
506037.59964833,605482.592736572,127,Robert Wood Johnson University Hospital,ONE ROBERT WOOD JOHNSON PLACE,NEW BRUNSWICK,NJ,08903-2601,732-828-3000,,ACUTE CARE HOSPITALS,MIDDLESEX,34023,34,US,CENTRAL EAST,40.49570033,-74.44997405,,,,,610,Level I
503371.086936746,607516.344574571,128,Saint Peter's University Hospital,254 EASTON AVENUE,NEW BRUNSWICK,NJ,08901,732-745-8600,732-843-4263,ACUTE CARE HOSPITALS,MIDDLESEX,34023,34,US,CENTRAL EAST,40.501287,-74.45955906,,,,,474,
508592.567307413,602874.509698153,129,Eric B. Chandler Health Center,277 GEORGE STREET,NEW BRUNSWICK,NJ,08901,732-235-6700,,FEDERALLY QUALIFIED HEALTH CENTERS,MIDDLESEX,34023,34,US,CENTRAL EAST,40.48853645,-74.44079308,,,,,9999999,
507337.995341495,605514.532633319,130,Eric B. Chandler Health Center Church Street Annex,123 CHURCH STREET,NEW BRUNSWICK,NJ,08901,732-235-2052,,FEDERALLY QUALIFIED HEALTH CENTERS,MIDDLESEX,34023,34,US,CENTRAL EAST,40.49578589,-74.44529796,,,,,9999999,
506121.625070829,605705.391175486,131,Children's Specialized Hospital - New Brunswick,146 SOMERSET ST,NEW BRUNSWICK,NJ,08901,,,NON ACUTE CARE HOSPITALS,MIDDLESEX,34023,34,US,CENTRAL EAST,40.49631181,-74.44967145,,,,,9999999,
571725.11000533,683661.384213321,132,Newark Beth Israel Medical Center,201 LYONS AVENUE AT OSBORNE,NEWARK,NJ,07112,973-926-7000,,ACUTE CARE HOSPITALS,ESSEX,34013,34,US,NORTH EAST,40.70996132,-74.21285675,,,,,673,
582360.186832245,695766.566367738,133,Saint Michael's Medical Center,111 CENTRAL AVENUE,NEWARK,NJ,07102,973-877-5000,973-877-5411,ACUTE CARE HOSPITALS,ESSEX,34013,34,US,NORTH EAST,40.743088,-74.174331,,,,,357,
577780.22387933,694857.831636652,134,University Hospital,150 BERGEN ST.,NEWARK,NJ,07103,973-972-1000,973-972-6000,ACUTE CARE HOSPITALS,ESSEX,34013,34,US,NORTH EAST,40.740639,-74.190872,,,,,519,Level I
571077.256642245,684543.778773986,135,George Washington Carver,333 CLINTON PLACE,NEWARK,NJ,07112,973-705-3880,,FEDERALLY QUALIFIED HEALTH CENTERS,ESSEX,34013,34,US,NORTH EAST,40.71238928,-74.21518343,,,,,9999999,
573860.392152078,676369.015924074,136,Newark Community Health Center,101 LUDLOW STREET,NEWARK,NJ,07114,973-565-0355,,FEDERALLY QUALIFIED HEALTH CENTERS,ESSEX,34013,34,US,NORTH EAST,40.68992435,-74.2052424,,,,,9999999,
585470.61105758,690211.078462988,137,Newark Community Health Center St. James Hospital,155 JEFFERSON ST,NEWARK,NJ,07105,973-483-1399,,FEDERALLY QUALIFIED HEALTH CENTERS,ESSEX,34013,34,US,NORTH EAST,40.72780612,-74.16318217,,,,,9999999,
586544.066587828,707481.846414819,138,"Newark Community Health Centers, Inc",741 BROADWAY,NEWARK,NJ,07104,973-483-1300,,FEDERALLY QUALIFIED HEALTH CENTERS,ESSEX,34013,34,US,NORTH EAST,40.77520238,-74.15906682,,,,,9999999,
581119.107293412,692677.779894404,139,Newark Homeless Health Care Project,110 WILLIAM STREET,NEWARK,NJ,07102,973-733-5300,,FEDERALLY QUALIFIED HEALTH CENTERS,ESSEX,34013,34,US,NORTH EAST,40.73462191,-74.17885093,,,,,9999999,
577755.084493913,695807.649290822,140,Rutgers Community Health Center,65 BERGEN ST,NEWARK,NJ,07107,973-972-9620,,FEDERALLY QUALIFIED HEALTH CENTERS,ESSEX,34013,34,US,NORTH EAST,40.74324647,-74.19095066,,,,,9999999,
585602.738746081,690672.13987682,141,Saint James Health,228 LAFAYETTE ST,NEWARK,NJ,07105,973-789-8111,,FEDERALLY QUALIFIED HEALTH CENTERS,ESSEX,34013,34,US,NORTH EAST,40.72907033,-74.16269903,,,,,9999999,
577514.450132661,687128.473407738,142,Teen Health Center - Malcolm X Shabazz,80 JOHNSON AVENUE,NEWARK,NJ,07108,973-623-8592,,FEDERALLY QUALIFIED HEALTH CENTERS,ESSEX,34013,34,US,NORTH EAST,40.71942461,-74.19192903,,,,,9999999,
581026.975587912,700654.020503573,143,The Bear Zone at Barringer High School,90 PARKER STREET,NEWARK,NJ,07104,973-497-5751,,FEDERALLY QUALIFIED HEALTH CENTERS,ESSEX,34013,34,US,NORTH EAST,40.75651739,-74.17907817,,,,,9999999,
579872.684917495,690989.823296569,144,The Health Place at Quitman Street School,21 QUITMAN STREET,NEWARK,NJ,07103,973-424-4329,,FEDERALLY QUALIFIED HEALTH CENTERS,ESSEX,34013,34,US,NORTH EAST,40.73000093,-74.18337076,,,,,9999999,
574272.188572578,678007.72819782,145,The Rainbow Room - Dayton Street School,226 DAYTON STREET,NEWARK,NJ,07114,973-733-8781,,FEDERALLY QUALIFIED HEALTH CENTERS,ESSEX,34013,34,US,NORTH EAST,40.69441882,-74.20373745,,,,,9999999,
583680.983403247,693508.33499182,146,Catholic Community Services - Mount Carmel Guild,58 FREEMAN STREET,NEWARK,NJ,07105,973-596-4190,,NON ACUTE CARE HOSPITALS,ESSEX,34013,34,US,NORTH EAST,40.73687567,-74.16959482,,,,,9999999,
578811.062368829,706623.530546159,147,Columbus Hospital,495 N 13TH ST,NEWARK,NJ,07107,973-268-1400,973-877-5000,NON ACUTE CARE HOSPITALS,ESSEX,34013,34,US,NORTH EAST,40.77292545,-74.18700032,,,,,0,
577332.376021747,690785.159007736,148,The Health Center at Central High School,246 18TH AVE,NEWARK CITY,NJ,07108,,,FEDERALLY QUALIFIED HEALTH CENTERS,ESSEX,34013,34,US,NORTH EAST,40.72946391,-74.19253973,,,,,9999999,
305540.592834745,172705.810982153,149,Kids' Corner - Downe Elementary School,ROUTE 553,NEWPORT,NJ,08345,856-447-3227,,FEDERALLY QUALIFIED HEALTH CENTERS,CUMBERLAND,34011,34,US,SOUTH,39.30569106,-75.15942058,,,,,9999999,
418131.700329244,810275.015499987,150,Newton Medical Center,175 HIGH STREET,NEWTON,NJ,07860,973-383-2121,973-579-8645,ACUTE CARE HOSPITALS,SUSSEX,34037,34,US,NORTH WEST,41.057554,-74.768321,,,,,148,
423304.955402661,809691.932020485,151,Neighborhood Health Center - Newton,238 SPRING STREET,NEWTON,NJ,07860,973-383-7001,,FEDERALLY QUALIFIED HEALTH CENTERS,SUSSEX,34037,34,US,NORTH WEST,41.05599568,-74.74955553,,,,,9999999,
631541.575345911,714466.437760569,152,Palisades Medical Center,7600 RIVER ROAD,NORTH BERGEN,NJ,07047,201-854-5000,,ACUTE CARE HOSPITALS,HUDSON,34017,34,US,NORTH EAST,40.79377994,-73.99644698,,,,,202,
623156.973348744,709293.246663406,153,NHCAC North Bergen,1116 43RD STREET,NORTH BERGEN,NJ,07047,201-330-2632,,FEDERALLY QUALIFIED HEALTH CENTERS,HUDSON,34017,34,US,NORTH EAST,40.77970822,-74.02683086,,,,,9999999,
541325.073364578,564533.154950574,154,Raritan Bay Medical Center - Old Bridge,1 HOSPITAL PLAZA,OLD BRIDGE,NJ,08857,732-360-1000,732-442-3700,ACUTE CARE HOSPITALS,MIDDLESEX,34023,34,US,CENTRAL EAST,40.38316349,-74.32338057,,,,,119,
567207.826060914,706716.739021152,155,Orange Community Health Center,37 NORTH DAY STREET,ORANGE,NJ,07050,973-395-2611,,FEDERALLY QUALIFIED HEALTH CENTERS,ESSEX,34013,34,US,NORTH EAST,40.77328733,-74.22889513,,,,,9999999,
612953.089557078,773598.354601488,156,Bergen Regional Medical Center L.P.,230 EAST RIDGEWOOD AVENUE,PARAMUS,NJ,07652,201-967-4000,,ACUTE CARE HOSPITALS,BERGEN,34003,34,US,NORTH EAST,40.956363,-74.062517,,,,,1070,
592312.600326329,738095.799622491,157,St. Mary's Hospital,350 BOULEVARD,PASSAIC,NJ,07055,973-365-4300,,ACUTE CARE HOSPITALS,PASSAIC,34031,34,US,NORTH WEST,40.859172,-74.137781,,,,,220,
599990.003934745,737902.250468902,158,NHCAC CHC at 8th Street Passaic,148 8TH STREET,PASSAIC,NJ,07055,973-470-3033,,FEDERALLY QUALIFIED HEALTH CENTERS,PASSAIC,34031,34,US,NORTH WEST,40.85855023,-74.11002764,,,,,9999999,
594597.072135329,732383.198186822,159,NHCAC CHC at Passaic,110 MAIN AVENUE,PASSAIC,NJ,07055,973-777-0256,,FEDERALLY QUALIFIED HEALTH CENTERS,PASSAIC,34031,34,US,NORTH WEST,40.84346521,-74.12960916,,,,,9999999,
584559.003300745,753885.565286987,160,St. Joseph's Regional Medical Center,703 MAIN STREET,PATERSON,NJ,07503,973-754-2000,973-754-2025,ACUTE CARE HOSPITALS,PASSAIC,34031,34,US,NORTH WEST,40.902598,-74.165595,,,,,660,Level II
582713.556204244,761718.638859652,161,Paterson Community Health Center,32 CLINTON STREET,PATERSON,NJ,07522,973-790-6594,,FEDERALLY QUALIFIED HEALTH CENTERS,PASSAIC,34031,34,US,NORTH WEST,40.92411809,-74.17216514,,,,,9999999,
584628.143582411,759774.369454235,162,Paterson Community Health Center,227 BROADWAY,PATERSON,NJ,07501,973-278-2600,,FEDERALLY QUALIFIED HEALTH CENTERS,PASSAIC,34031,34,US,NORTH WEST,40.91876139,-74.16526336,,,,,9999999,
284013.882935494,364257.177878655,163,CAMcare Paulsboro,1315 NORTH DELAWARE STREET,PAULSBORO,NJ,08066,856-687-2200,,FEDERALLY QUALIFIED HEALTH CENTERS,GLOUCESTER,34015,34,US,SOUTH,39.83111017,-75.24107125,,,,,9999999,
453128.937093161,684532.290279903,164,The Matheny School and Hospital,HIGHLAND AVE   ST,PEAPACK,NJ,07934,908-234-0011,,NON ACUTE CARE HOSPITALS,SOMERSET,34035,34,US,CENTRAL WEST,40.71262337,-74.64067943,,,,,9999999,
444389.852209162,413843.731264405,165,Southern Jersey Family Medical Center - Buttonwood,600 PEMBERTON-BROWNS MILLS ROAD,PEMBERTON,NJ,08064,609-894-1100,,FEDERALLY QUALIFIED HEALTH CENTERS,BURLINGTON,34005,34,US,SOUTH,39.96948764,-74.67032628,,,,,9999999,
553029.000087913,614105.323194489,166,Raritan Bay Medical Center - Perth Amboy,530 NEW BRUNSWICK AVE,PERTH AMBOY,NJ,08861,732-442-3700,,ACUTE CARE HOSPITALS,MIDDLESEX,34023,34,US,CENTRAL EAST,40.519174,-74.280924,,,,,388,
556403.359808996,608471.908608325,167,Jewish Renaissance Foundation-Community Action Agency,149 KEARNY AVE,PERTH AMBOY,NJ,08861,732-324-2114X124,,FEDERALLY QUALIFIED HEALTH CENTERS,MIDDLESEX,34023,34,US,CENTRAL EAST,40.50368604,-74.2688393,,,,,9999999,
556253.361421328,610226.744337492,168,Jewish Renaissance Medical Center,275A  HOBART STREET,PERTH AMBOY,NJ,08861,732-376-9333,732-376-6655,FEDERALLY QUALIFIED HEALTH CENTERS,MIDDLESEX,34023,34,US,CENTRAL EAST,40.50850433,-74.26936223,,,,,9999999,
556255.20196883,610230.024186574,169,Jewish Renaissance Medical Center Dental/Medical Mobile Van,275 HOBART STREET,PERTH AMBOY,NJ,08861,732-376-6632,,FEDERALLY QUALIFIED HEALTH CENTERS,MIDDLESEX,34023,34,US,CENTRAL EAST,40.50851332,-74.26935558,,,,,9999999,
551627.725331411,614857.668146491,170,Care One at Raritan Bay Medical Center,530 NEW BRUNSWICK AVE,PERTH AMBOY,NJ,08861,,,NON ACUTE CARE HOSPITALS,MIDDLESEX,34023,34,US,CENTRAL EAST,40.52124871,-74.28595792,,,,,9999999,
304025.944945414,681373.699484237,171,St Luke's Warren Hospital,185 ROSEBERRY ST.,PHILLIPSBURG,NJ,08865,908-859-6800,908-859-6800,ACUTE CARE HOSPITALS,WARREN,34041,34,US,NORTH WEST,40.702045,-75.178457,,,,,214,
299298.998362578,680862.493813738,172,Neighborhood Health Center - Phillipsburg,427 N MAIN ST,PHILLIPSBURG,NJ,08865,908-454-4600,,FEDERALLY QUALIFIED HEALTH CENTERS,WARREN,34041,34,US,NORTH WEST,40.70054037,-75.19549087,,,,,9999999,
500635.195426911,616101.735540241,173,University Behavioral Healthcare,671 HOES LANE,PISCATAWAY,NJ,08854,609-969-5300,,NON ACUTE CARE HOSPITALS,MIDDLESEX,34023,34,US,CENTRAL EAST,40.524858,-74.469387,,,,,9999999,
508525.325643994,643165.625966154,174,Clinton Elementary School,CLINTON AVE AND W 4TH ST,PLAINFIELD,NJ,07063,908-731-4288,,FEDERALLY QUALIFIED HEALTH CENTERS,UNION,34039,34,US,CENTRAL EAST,40.59914011,-74.44093778,,,,,9999999,
506776.176911328,645189.026446909,175,Jefferson Elementary School,1200 MYRTLE AVENUE,PLAINFIELD,NJ,07063,908-731-4288,,FEDERALLY QUALIFIED HEALTH CENTERS,UNION,34039,34,US,CENTRAL EAST,40.60469756,-74.44723276,,,,,9999999,
516491.850065246,647840.906641819,176,Neighborhood Health Center - Cardinal,950 PARK AVENUE,PLAINFIELD,NJ,07060,908-754-5840,,FEDERALLY QUALIFIED HEALTH CENTERS,UNION,34039,34,US,CENTRAL EAST,40.61195589,-74.41223053,,,,,9999999,
511163.995891578,646063.438411988,177,Neighborhood Health Center - The Healthy Place,427 DARROW AVENUE,PLAINFIELD,NJ,07060,908-731-4288,,FEDERALLY QUALIFIED HEALTH CENTERS,UNION,34039,34,US,CENTRAL EAST,40.60708959,-74.4314268,,,,,9999999,
504549.78208591,643297.606017157,178,Neighborhood Health Services - Plainfield,1700-58 MYRTLE AVENUE,PLAINFIELD,NJ,07063,908-753-6401,,FEDERALLY QUALIFIED HEALTH CENTERS,UNION,34039,34,US,CENTRAL EAST,40.59950884,-74.45525498,,,,,9999999,
513879.975039661,649295.440150075,179,Stillman Elementary School,201 W. 4TH STREET,PLAINFIELD,NJ,07060,908-731-4288,,FEDERALLY QUALIFIED HEALTH CENTERS,UNION,34039,34,US,CENTRAL EAST,40.61595546,-74.42163401,,,,,9999999,
518856.411280997,645990.216773652,180,JFK-Muhlenberg SED,1200 RANDOLPH ROAD,PLAINFIELD,NJ,07061,908-668-2000,732-321-7000,SATELLITE EMERGENCY DEPARTMENTS,UNION,34039,34,US,CENTRAL EAST,40.60686882,-74.40372052,,,,,9999999,
457486.722668912,548716.942488573,181,University Medical Center of Princeton at Plainsboro,1 PLAINSBORO RD,PLAINSBORO,NJ,08536,609-853-6500,,ACUTE CARE HOSPITALS,MIDDLESEX,34023,34,US,CENTRAL EAST,40.33981297,-74.62426829,,,,,219,
483580.257423997,200216.151630655,182,Pleasantville Center,932 SOUTH MAIN STREET,PLEASANTVILLE,NJ,08232,609-383-0880,,FEDERALLY QUALIFIED HEALTH CENTERS,ATLANTIC,34001,34,US,SOUTH,39.38308928,-74.53023347,,,,,9999999,
618129.455844745,455120.053567238,183,Ocean Care SED,1517 RICHMOND AVE,POINT PLEASANT,NJ,08742,,,SATELLITE EMERGENCY DEPARTMENTS,OCEAN,34029,34,US,CENTRAL EAST,40.08205571,-74.04966372,,,,,9999999,
480715.105345912,235159.852740489,184,Atlanticare Regional Medical Center Mainland Division,JIMMIE LEEDS ROAD,POMONA,NJ,08240,609-652-1000,,ACUTE CARE HOSPITALS,ATLANTIC,34001,34,US,SOUTH,39.479029,-74.540426,,,,,349,
481068.974060744,234985.964964904,185,Bacharach Institute for Rehabilitation,61 WEST JIMMIE LEEDS ROAD,POMONA,NJ,08240,609-652-7000,,NON ACUTE CARE HOSPITALS,ATLANTIC,34001,34,US,SOUTH,39.478552,-74.539172,,,,,9999999,
544541.638125662,774203.057788402,186,Chilton Medical Center,97 WEST PARKWAY,POMPTON PLAINS,NJ,07444,973-831-5000,888-244-5866,ACUTE CARE HOSPITALS,MORRIS,34027,34,US,NORTH WEST,40.95869663,-74.31020878,,,,,9999999,
449381.265454661,566489.650381409,187,Princeton House Behavioral Health,905 HERRONTOWN ROAD,PRINCETON,NJ,08540,609-497-3300,800-242-2500,NON ACUTE CARE HOSPITALS,MERCER,34021,34,US,CENTRAL WEST,40.38856748,-74.65345757,,,,,9999999,
550071.141502328,648327.363674156,188,Robert Wood Johnson University Hospital at Rahway,865 STONE STREET,RAHWAY,NJ,07065,732-381-4200,,ACUTE CARE HOSPITALS,UNION,34039,34,US,CENTRAL EAST,40.613136,-74.291272,,,,,251,
550239.414131664,647932.165317573,189,Kindred Hospital New Jersey - Rahway,865 STONE ST,RAHWAY,NJ,07065,,,NON ACUTE CARE HOSPITALS,UNION,34039,34,US,CENTRAL EAST,40.61205006,-74.29066925,,,,,9999999,
613784.154824078,554099.822470821,190,Riverview Medical Center,1 RIVERVIEW PLAZA,RED BANK,NJ,07701,732-741-2700,732-741-2700,ACUTE CARE HOSPITALS,MONMOUTH,34025,34,US,CENTRAL EAST,40.353833,-74.063453,,,,,492,
610394.228533078,554054.232338905,191,Red Bank Community Health Center,176 RIVERSIDE AVENUE,RED BANK,NJ,07701,732-219-6620,732-774-6333,FEDERALLY QUALIFIED HEALTH CENTERS,MONMOUTH,34025,34,US,CENTRAL EAST,40.35375312,-74.07561751,,,,,9999999,
602395.422024161,783613.454321906,192,Valley Hospital,223 NORTH VAN DIEN AVENUE,RIDGEWOOD,NJ,07450,201-447-8000,201-447-8004,ACUTE CARE HOSPITALS,BERGEN,34003,34,US,NORTH EAST,40.98399156,-74.10057668,,,,,484,
609182.339224581,752719.794652656,193,Select Specialty Hospital Northeast New Jersey,96 PARKWAY,ROCHELLE PARK,NJ,07662,,,NON ACUTE CARE HOSPITALS,BERGEN,34003,34,US,NORTH EAST,40.89910542,-74.07653548,,,,,9999999,
604727.209027246,751601.080026574,194,Kessler Institute for Rehabilitation - North Facility,300 MARKET STREET,SADDLE BROOK,NJ,07663,201-587-8500,,NON ACUTE CARE HOSPITALS,BERGEN,34003,34,US,NORTH EAST,40.89609274,-74.09267078,,,,,9999999,
225967.035118662,278281.029949404,195,Memorial Hospital of Salem County,310 WOODSTOWN RD,SALEM,NJ,08079,856-935-1000,856-935-6059,ACUTE CARE HOSPITALS,SALEM,34033,34,US,SOUTH,39.59359,-75.444524,,,,,140,
220776.913937245,268789.420979902,196,Salem Center,238 EAST BROADWAY,SALEM,NJ,08079,856-935-7711,,FEDERALLY QUALIFIED HEALTH CENTERS,SALEM,34033,34,US,SOUTH,39.56738265,-75.46257937,,,,,9999999,
280820.59535883,233701.479672991,197,Colt Connection - Cumberland Regional High School,90 SILVER LAKE ROAD,SEABROOK,NJ,08302,856-451-9400,,FEDERALLY QUALIFIED HEALTH CENTERS,CUMBERLAND,34011,34,US,SOUTH,39.47262253,-75.24856563,,,,,9999999,
610307.842550997,713623.749157235,198,Meadowlands Hospital Medical Center,55 MEADOWLANDS PARKWAY,SECAUCUS,NJ,07096-1580,201-392-3200,,ACUTE CARE HOSPITALS,HUDSON,34017,34,US,NORTH EAST,40.79177602,-74.07315308,,,,,230,
614361.422698412,710851.255030319,199,Meadowview Psychiatric Hospital,595 COUNTY AVENUE,SECAUCUS,NJ,07094,201-207-3695,,NON ACUTE CARE HOSPITALS,HUDSON,34017,34,US,NORTH EAST,40.78411068,-74.05856331,,,,,9999999,
465719.550035246,631767.294104069,200,Robert Wood Johnson University Hospital Somerset,110 REHILL AVE,SOMERVILLE,NJ,08876,908-685-2200,,ACUTE CARE HOSPITALS,SOMERSET,34035,34,US,CENTRAL WEST,40.56782663,-74.59505334,,,,,355,
465641.187987246,175335.029476985,201,Shore Medical Center,ONE EAST NEW YORK AVENUE,SOMMERS POINT,NJ,08244,609-653-3500,609-653-3545,ACUTE CARE HOSPITALS,ATLANTIC,34001,34,US,SOUTH,39.31474,-74.593612,,,,,332,
349319.678504746,362734.599887073,202,Kennedy Memorial Hospitals UMC Stratford,18 EAST LAUREL ROAD,STRATFORD,NJ,08084,856-346-6000,856-346-7816,ACUTE CARE HOSPITALS,CAMDEN,34007,34,US,SOUTH,39.82818251,-75.00850148,,,,,236,
532607.245655913,684434.395790659,203,Overlook Medical Center,99 BEAUVOIR AVENUE,SUMMIT,NJ,07902-0220,908-522-5529,908-522-2000X3383,ACUTE CARE HOSPITALS,UNION,34039,34,US,CENTRAL EAST,40.712348,-74.353963,,,,,568,
530128.923184745,684977.253300741,204,Summit Oaks Hospital,19 PROSPECT STREET,SUMMIT,NJ,07901,908-522-7000,800-753-5223,NON ACUTE CARE HOSPITALS,UNION,34039,34,US,CENTRAL EAST,40.71384912,-74.3629004,,,,,9999999,
463651.985928912,864630.700751655,205,Saint Clare's Sussex SED,20 WALNUT ST.,SUSSEX,NJ,07461,973-702-2600,973-702-2715,SATELLITE EMERGENCY DEPARTMENTS,SUSSEX,34037,34,US,NORTH WEST,41.207017,-74.603487,,,,,106,
627476.880063247,746906.194075152,206,Holy Name Medical Center,718 TEANECK ROAD,TEANECK,NJ,07666,201-833-3000,,ACUTE CARE HOSPITALS,BERGEN,34003,34,US,NORTH EAST,40.882886,-74.010473,,,,,361,
609837.450119078,528393.856494404,207,HealthSouth Rehabilitation Hospital of Tinton Falls,2 CENTER PLZ,TINTON FALLS,NJ,07724,732-460-5320,732-460-6741,NON ACUTE CARE HOSPITALS,MONMOUTH,34025,34,US,CENTRAL EAST,40.28331901,-74.07805408,,,,,9999999,
609388.381791495,528204.545849405,208,The Rehabilitation Hospital of Tinton Falls,2 CENTRE ST,TINTON FALLS,NJ,07724,732-460-5320,,NON ACUTE CARE HOSPITALS,MONMOUTH,34025,34,US,CENTRAL EAST,40.28280518,-74.07966697,,,,,9999999,
571728.914787747,411934.788559988,209,Community Medical Center,99 HIGHWAY 37 WEST,TOMS RIVER,NJ,08755,732-557-8000,,ACUTE CARE HOSPITALS,OCEAN,34029,34,US,CENTRAL EAST,39.96402409,-74.21598801,,,,,636,
572996.761989579,409517.249759905,210,Ocean Health Initiatives - Toms River,301 LAKEHURST ROAD,TOMS RIVER,NJ,08755,732-552-0377,,FEDERALLY QUALIFIED HEALTH CENTERS,OCEAN,34029,34,US,CENTRAL EAST,39.95737592,-74.21149249,,,,,9999999,
569977.361860413,428574.583036236,211,Children's Specialized Hospital at Toms River,94 STEVENS ROAD,TOMS RIVER,NJ,08755,732-914-1100,888-244-5373,NON ACUTE CARE HOSPITALS,OCEAN,34029,34,US,CENTRAL EAST,40.00972119,-74.22205212,,,,,9999999,
571303.938931663,411302.522436075,212,Healthsouth Rehabilitation Hospital of Toms River,14 HOSPITAL DRIVE,TOMS RIVER,NJ,08755,732-244-3100,,NON ACUTE CARE HOSPITALS,OCEAN,34029,34,US,CENTRAL EAST,39.962292,-74.21751138,,,,,9999999,
572058.975479327,429397.023648575,213,"Saint Barnabas Behavioral Health Center, Inc.",1691 US HIGHWAY 9,TOMS RIVER,NJ,08754,732-914-1688,,NON ACUTE CARE HOSPITALS,OCEAN,34029,34,US,CENTRAL EAST,40.011961,-74.214611,,,,,9999999,
421780.189751413,511025.636309654,214,Capital Health Regional Medical Center,750 BRUNSWICK AVENUE,TRENTON,NJ,08638,609-394-6000,,ACUTE CARE HOSPITALS,MERCER,34021,34,US,CENTRAL WEST,40.236134,-74.751982,,,,,269,Level II
424737.134624913,503831.87937174,215,St. Francis Medical Center,601 HAMILTON AVENUE,TRENTON,NJ,08629,609-599-5000,,ACUTE CARE HOSPITALS,MERCER,34021,34,US,CENTRAL WEST,40.216408,-74.74132,,,,,240,
423833.244044244,504849.397677906,216,Chambers Manor Family Practice,317 CHAMBERS STREET,TRENTON,NJ,08609,609-278-5900,,FEDERALLY QUALIFIED HEALTH CENTERS,MERCER,34021,34,US,CENTRAL WEST,40.21919454,-74.74456688,,,,,9999999,
420543.206989162,506184.380244158,217,Ewing Health Center,112 EWING ST,TRENTON,NJ,08609,609-278-5900,,FEDERALLY QUALIFIED HEALTH CENTERS,MERCER,34021,34,US,CENTRAL WEST,40.22283389,-74.75636281,,,,,9999999,
418075.026886161,507082.95390632,218,"Henry J. Austin Health Center, Inc (Warren St)",321 N WARREN ST,TRENTON,NJ,08618,609-278-5900,,FEDERALLY QUALIFIED HEALTH CENTERS,MERCER,34021,34,US,CENTRAL WEST,40.22528077,-74.76521182,,,,,9999999,
406866.793725245,513781.379813902,219,Trenton Psychiatric Hospital,101 SULLIVAN WAY,TRENTON,NJ,08601,609-633-1500,,NON ACUTE CARE HOSPITALS,MERCER,34021,34,US,CENTRAL WEST,40.24357048,-74.80543625,,,,,9999999,
333088.728027079,328985.106690653,220,Kennedy Memorial Hospitals UMC Washington Township,435 HURFFVILLE-CROSS KEYS ROAD,TURNERSVILLE,NJ,08012,856-582-2500,856-582-2816,ACUTE CARE HOSPITALS,GLOUCESTER,34015,34,US,SOUTH,39.735261,-75.065535,,,,,153,
557159.566629913,670792.633376069,221,Overlook-Union SED,1000 GALLOPING HILL ROAD,UNION,NJ,07083,,,SATELLITE EMERGENCY DEPARTMENTS,UNION,34039,34,US,CENTRAL EAST,40.67475511,-74.26552305,,,,,9999999,
620306.404902913,705950.979397818,222,NHCAC Health Center at Union City High School,2500 KENNEDY BLVD,UNION CITY,NJ,07087,201-553-7888,,FEDERALLY QUALIFIED HEALTH CENTERS,HUDSON,34017,34,US,NORTH EAST,40.77057574,-74.03718792,,,,,9999999,
621857.151145246,706694.890639655,223,NHCAC Union City,714 31ST STREET,UNION CITY,NJ,07087,201-863-7077,,FEDERALLY QUALIFIED HEALTH CENTERS,HUDSON,34017,34,US,NORTH EAST,40.77259512,-74.03157461,,,,,9999999,
621497.058689579,706921.305869237,224,North Hudson Community Action Corp Health Center,800 31ST STREET,UNION CITY,NJ,07087,201-210-0100,,FEDERALLY QUALIFIED HEALTH CENTERS,HUDSON,34017,34,US,NORTH EAST,40.77322188,-74.03287041,,,,,9999999,
334317.36828633,223383.111858323,225,Inspira Medical Center Vineland,1505 W. SHERMAN AVENUE,VINELAND,NJ,08360,856-641-8000,,ACUTE CARE HOSPITALS,CUMBERLAND,34011,34,US,SOUTH,39.445359,-75.058832,,,,,262,
338943.32392941,239792.517687738,226,CompleteCare Vineland RiteCare,215 STHY 47,VINELAND,NJ,08360,,,FEDERALLY QUALIFIED HEALTH CENTERS,CUMBERLAND,34011,34,US,SOUTH,39.49048856,-75.04280113,,,,,9999999,
342420.088957496,238274.642770737,227,Vineland Medical and Dental Center,319 LANDIS AVENUE,VINELAND,NJ,08360,856-451-4700,,FEDERALLY QUALIFIED HEALTH CENTERS,CUMBERLAND,34011,34,US,SOUTH,39.4863781,-75.03045004,,,,,9999999,
358936.869572163,248796.95637174,228,Vineland Women's Health Center,484 S. BREWSTER RD,VINELAND,NJ,08360,856-451-4700,,FEDERALLY QUALIFIED HEALTH CENTERS,CUMBERLAND,34011,34,US,SOUTH,39.5155195,-74.97212363,,,,,9999999,
336196.705406912,224030.692256071,229,HealthSouth Rehabilitation Hospital of Vineland,1237 W SHERMAN AVE,VINELAND,NJ,08360,,,NON ACUTE CARE HOSPITALS,CUMBERLAND,34011,34,US,SOUTH,39.44716872,-75.0521912,,,,,9999999,
336077.576380078,223283.016914159,230,Rehabilitation Hospital of South Jersey,1237 WEST SHERMAN AVENUE,VINELAND,NJ,08360,856-696-7100,,NON ACUTE CARE HOSPITALS,CUMBERLAND,34011,34,US,SOUTH,39.44511397,-75.05259683,,,,,9999999,
363319.756147578,375775.06888482,231,Virtua West Jersey Hospital - Voorhees,101 CARNIE BOULEVARD,VOORHEES,NJ,08043,856-325-3000,,ACUTE CARE HOSPITALS,CAMDEN,34007,34,US,SOUTH,39.864191,-74.95889,,,,,200,
574128.554345414,769981.189591736,232,St. Joseph's Wayne Hospital,224 HAMBURG TPKE,WAYNE,NJ,07470,973-942-6900,973-956-3300,ACUTE CARE HOSPITALS,PASSAIC,34031,34,US,NORTH WEST,40.946882,-74.203132,,,,,229,
572824.544486247,770728.697611153,233,Kindred Hospital New Jersey - Wayne,224 HAMBURG TPKE,WAYNE,NJ,07470,,,NON ACUTE CARE HOSPITALS,PASSAIC,34031,34,US,NORTH WEST,40.94894588,-74.20784368,,,,,9999999,
625156.14585958,711093.263076492,234,Metropolitan Family Health Center,5300 BERGENLINE AVE,WEST NEW YORK,NJ,07093,201-478-5851,,FEDERALLY QUALIFIED HEALTH CENTERS,HUDSON,34017,34,US,NORTH EAST,40.78461926,-74.01957627,,,,,9999999,
626581.113153994,710248.112863906,235,NHCAC Health Center,5301 BROADWAY,WEST NEW YORK,NJ,07093,201-866-9320,,FEDERALLY QUALIFIED HEALTH CENTERS,HUDSON,34017,34,US,NORTH EAST,40.78227787,-74.01444725,,,,,9999999,
626581.113153994,710248.112863906,236,NHCAC Mobile Unit,5301 BROADWAY,WEST NEW YORK,NJ,07093,201-866-9320,,FEDERALLY QUALIFIED HEALTH CENTERS,HUDSON,34017,34,US,NORTH EAST,40.78227787,-74.01444725,,,,,9999999,
554005.490260914,711205.128666408,237,Kessler Institute for Rehabilitation - West Facility,1199 PLEASANT VALLEY WAY,WEST ORANGE,NJ,07052,973-731-3600,,NON ACUTE CARE HOSPITALS,ESSEX,34013,34,US,NORTH EAST,40.78571,-74.276524,,,,,9999999,
395053.699897412,428097.298885822,238,Hampton Behavioral Health Center,650 RANCOCAS ROAD,WESTAMPTON TOWNSHIP,NJ,08060,800-603-6767,609-267-7000,NON ACUTE CARE HOSPITALS,BURLINGTON,34005,34,US,SOUTH,40.008226,-74.846559,,,,,9999999,
626060.668328747,784282.361776739,239,Hackensack UMC at Pascack Valley,250 OLD HOOK ROAD,WESTWOOD,NJ,07675-3181,,,ACUTE CARE HOSPITALS,BERGEN,34003,34,US,NORTH EAST,40.98549872,-74.01484491,,,,,9999999,
385508.661900911,442093.933622152,240,Lourdes Medical Center of Burlington County,218 SUNSET ROAD,WILLINGBORO,NJ,08046,609-835-2900,,ACUTE CARE HOSPITALS,BURLINGTON,34005,34,US,SOUTH,40.046544,-74.880849,,,,,9999999,
384043.458466496,442713.389076158,241,Lourdes Specialty Hospital of Southern New Jersey,218 SUNSET RD,WILLINGBORO,NJ,08046,,,NON ACUTE CARE HOSPITALS,BURLINGTON,34005,34,US,SOUTH,40.04822726,-74.88609238,,,,,9999999,
309774.584038664,368682.002690405,242,Inspira Medical Center Woodbury,509 NORTH BROAD STREET,WOODBURY,NJ,08096,856-845-0100,,ACUTE CARE HOSPITALS,GLOUCESTER,34015,34,US,SOUTH,39.84380717,-75.14945948,,,,,305,
582747.201150078,782572.899972573,243,Christian Healthcare Center - Ramapo Ridge Psychiatric Hospital,301 SICOMAC AVENUE,WYCKOFF,NJ,07481,201-848-5200,,NON ACUTE CARE HOSPITALS,BERGEN,34003,34,US,NORTH EAST,40.98136,-74.17176,,,,,9999999,
587169.269405663,788307.436075658,244,Ramapo Ridge Psychiatric Hospital,301 CEDAR HILL AVE,WYCKOFF,NJ,07481,,,NON ACUTE CARE HOSPITALS,BERGEN,34003,34,US,NORTH EAST,40.99705372,-74.15566127,,,,,9999999,
